NSS-6                   
1 27603U 02057A   22335.56358865  .00000110  00000+0  00000+0 0  9993
2 27603   2.0328  89.6845 0003895 167.6694 206.4360  1.00273571 73073
NIMIQ 2                 
1 27632U 02062A   22335.57159218 -.00000064  00000+0  00000+0 0  9992
2 27632   6.3985  69.2219 0008477 174.7368 282.9587  1.00270164 31213
USA 167                 
1 27691U 03008A   22335.35782576  .00000053  00000+0  00000+0 0  9990
2 27691   8.3711  53.5372 0001407 174.9796 200.6208  1.00267498 19989
USA 169 (MILSTAR-2 4)   
1 27711U 03012A   22334.87754177 -.00000198  00000+0  00000+0 0  9991
2 27711  10.3742  39.1792 0003405 203.3357 295.2148  1.00269064 19978
GALAXY 12 (G-12)        
1 27715U 03013B   22335.42136865  .00000060  00000+0  00000+0 0  9993
2 27715   3.6882  83.7974 0001789 167.4410 201.7199  1.00270917 39128
ASIASAT 4               
1 27718U 03014A   22335.59264983 -.00000219  00000+0  00000+0 0  9995
2 27718   1.3871  91.9021 0002858 164.3548 175.1036  1.00271240 32323
HELLAS-SAT 2            
1 27811U 03020A   22335.24736921 -.00000080  00000+0  00000+0 0  9990
2 27811   4.1018  82.7840 0007632 168.7145 257.6553  1.00271181 29874
THURAYA-2               
1 27825U 03026A   22334.92051853  .00000126  00000+0  00000+0 0  9999
2 27825   6.9414  34.5306 0002659 194.5982 216.0298  1.00271434 71379
OPTUS C1                
1 27831U 03028B   22335.60287091 -.00000148  00000+0  00000+0 0  9994
2 27831   3.6191  84.5928 0005770 163.7180 194.9000  1.00272081 40080
GALAXY 23 (G-23)        
1 27854U 03034A   22335.55716493  .00000015  00000+0  00000+0 0  9995
2 27854   0.0104 303.6747 0002955 306.0921 260.2405  1.00272210 70770
USA 170                 
1 27875U 03040A   22334.65639036 -.00000273  00000+0  00000+0 0  9999
2 27875   7.7326  58.7521 0003792 170.5491  34.2449  1.00266543 19982
GALAXY 13 (HORIZONS-1)  
1 27954U 03044A   22335.55041737  .00000050  00000+0  00000+0 0  9998
2 27954   0.0088  85.6277 0001544  98.1794 317.7084  1.00269648 33600
YAMAL 202               
1 28089U 03053A   22335.61116899 -.00000077  00000+0  00000+0 0  9997
2 28089   3.0536  86.1466 0004295 132.2938 235.5424  1.00270678 69714
UFO 11 (USA 174)        
1 28117U 03057A   22334.83647870 -.00000098  00000+0  00000+0 0  9997
2 28117   7.2174  37.7886 0001018 191.8386 216.0248  1.00273522 69478
USA 176 (DSP 22)        
1 28158U 04004A   22335.11269890 -.00000220  00000+0  00000+0 0  9996
2 28158  10.3085  34.3452 0001297 269.1271 254.3876  1.00269123 19954
ABS-4 (MOBISAT-1)       
1 28184U 04007A   22335.53778784  .00000043  00000+0  00000+0 0  9993
2 28184   2.7431  87.2853 0005655 167.0744  70.6002  1.00272662 39367
EUTELSAT 7A             
1 28187U 04008A   22335.53504069  .00000107  00000+0  00000+0 0  9991
2 28187   2.5299  86.6387 0004258 160.2777 236.8808  1.00269173 68381
AMC-11 (GE-11)          
1 28252U 04017A   22335.54537066  .00000071  00000+0  00000+0 0  9998
2 28252   0.0245 316.5314 0002792 302.0641 237.1263  1.00270525 67910
INTELSAT 10-02          
1 28358U 04022A   22335.16639250 -.00000009  00000+0  00000+0 0  9999
2 28358   0.0321  86.6275 0001111 200.6138 201.6800  1.00272887 67579
ANIK F2                 
1 28378U 04027A   22335.57064733 -.00000047  00000+0  00000+0 0  9991
2 28378   0.1167  91.9498 0004082  66.0834   6.7065  1.00271726 28297
AMC-15                  
1 28446U 04041A   22335.57737667 -.00000086  00000+0  00000+0 0  9999
2 28446   0.0172 340.0492 0002412 266.1501 287.0282  1.00270568 66356
NSS-10 (AMC-12)         
1 28526U 05003A   22335.41947347 -.00000248  00000+0  00000+0 0  9998
2 28526   3.1992  85.5440 0002997 149.1128 309.1733  1.00271460 40188
XTAR-EUR                
1 28542U 05005A   22334.72609467  .00000153  00000+0  00000+0 0  9993
2 28542   0.9979  92.6578 0003531 156.4306 110.8861  1.00272356 65216
XM-3 (RHYTHM)           
1 28626U 05008A   22335.30728850 -.00000203  00000+0  00000+0 0  9999
2 28626   0.0494 136.1146 0001526  52.7283 266.8274  1.00267994 29640
INMARSAT 4-F1           
1 28628U 05009A   22335.39910378 -.00000260  00000+0  00000+0 0  9992
2 28628   3.7408  36.7515 0002929 213.8251 106.8357  1.00270580 64699
DIRECTV 8               
1 28659U 05019A   22335.56053912  .00000003  00000+0  00000+0 0  9992
2 28659   0.0198  60.8899 0002722 181.1020 271.1592  1.00271157 64108
GALAXY 28 (G-28)        
1 28702U 05022A   22335.50789025 -.00000183  00000+0  00000+0 0  9990
2 28702   0.0443  73.8709 0002710 203.4685 246.8557  1.00271592 39011
THAICOM 4               
1 28786U 05028A   22335.35743902 -.00000361  00000+0  00000+0 0  9993
2 28786   0.0137 317.0926 0002361 283.3692  77.9101  1.00270367 39280
GALAXY 14 (G-14)        
1 28790U 05030A   22335.53220928  .00000158  00000+0  00000+0 0  9992
2 28790   1.6848  90.3730 0002004 153.3029  51.2023  1.00273677 63337
ANIK F1R                
1 28868U 05036A   22335.57411468 -.00000072  00000+0  00000+0 0  9995
2 28868   0.9839  92.0516 0000775 130.5769 307.1699  1.00271922 33483
GALAXY 15 (G-15)        
1 28884U 05041A   22335.55199802  .00000037  00000+0  00000+0 0  9992
2 28884   0.2370  92.3208 0004246 175.5488 235.7595  1.00307268 62643
SYRACUSE 3A             
1 28885U 05041B   22335.53499855  .00000131  00000+0  00000+0 0  9997
2 28885   1.5410  91.3442 0003418 158.1643  60.4670  1.00271939 62778
INMARSAT 4-F2           
1 28899U 05044A   22335.39492449  .00000011  00000+0  00000+0 0  9998
2 28899   3.6345  38.8401 0002934 213.1806  24.2803  1.00270562 62541
SPACEWAY 2              
1 28903U 05046B   22335.43524149  .00000106  00000+0  00000+0 0  9999
2 28903   2.2866  86.2965 0001274 196.2388 165.5512  1.00271767 38372
METEOSAT-9 (MSG-2)      
1 28912U 05049B   22334.99660937  .00000128  00000+0  00000+0 0  9992
2 28912   6.3974  65.1893 0001505 186.6501 222.4585  1.00274219 62061
EUTELSAT 174A           
1 28924U 05052A   22335.60394576  .00000012  00000+0  00000+0 0  9993
2 28924   0.9285  91.4677 0006286 156.9459 213.4453  1.00271427 39363
ECHOSTAR 10             
1 28935U 06003A   22335.57064662 -.00000053  00000+0  00000+0 0  9994
2 28935   0.0179 312.0676 0001625 256.8178 316.7882  1.00270856 61508
SPAINSAT                
1 28945U 06007A   22333.89213249 -.00000214  00000+0  00000+0 0  9998
2 28945   0.0232 210.2902 0005969  34.2765 115.3862  1.00271472 61231
EUTELSAT HOTBIRD 13E    
1 28946U 06007B   22335.52828685  .00000089  00000+0  00000+0 0  9996
2 28946   0.0468 156.0160 0006609  84.2115  33.3154  1.00270778 61356
JCSAT-5A                
1 29045U 06010A   22335.04077219 -.00000326  00000+0  00000+0 0  9992
2 29045   0.0186 292.0337 0001882 314.3317 330.2693  1.00272452 60795
ASTRA 1KR               
1 29055U 06012A   22335.52950716  .00000122  00000+0  00000+0 0  9993
2 29055   0.0364 282.1986 0005281 318.6660  39.3426  1.00273896 32758
EWS-G1 (GOES 13)        
1 29155U 06018A   22335.53787500  .00000040  00000+0  00000+0 0  9999
2 29155   1.0010  93.7571 0006678 145.0966  86.4796  1.00272567 30403
EUTELSAT 113 WEST A     
1 29162U 06020A   22335.56727703 -.00000035  00000+0  00000+0 0  9997
2 29162   0.0117 148.1804 0003032 101.0729 272.3864  1.00271349 60505
GALAXY 16 (G-16)        
1 29236U 06023A   22335.58593149 -.00000125  00000+0  00000+0 0  9999
2 29236   0.0398 126.4336 0002656 124.0083 291.9136  1.00271901 60004
EUTELSAT HOTBIRD 13B    
1 29270U 06032A   22335.52828685  .00000088  00000+0  00000+0 0  9994
2 29270   0.0628 339.7416 0004871 280.9855  12.8194  1.00269529 34330
JCSAT-3A                
1 29272U 06033A   22335.55112406 -.00000343  00000+0  00000+0 0  9992
2 29272   0.0228  75.6583 0002108 179.4685 141.6668  1.00268844 34766
SYRACUSE 3B             
1 29273U 06033B   22335.39216010 -.00000042  00000+0  00000+0 0  9997
2 29273   0.0145 320.3353 0004586 294.2132 311.6622  1.00272478 59736
KOREASAT 5 (MUGUNGWHA 5)
1 29349U 06034A   22335.60203988 -.00000356  00000+0  00000+0 0  9994
2 29349   0.0261  97.3312 0001798 160.2265 142.6709  1.00269437 28348
DIRECTV 9S              
1 29494U 06043A   22335.58232753 -.00000111  00000+0  00000+0 0  9993
2 29494   0.0133 348.7073 0003064 264.1344 286.0242  1.00271611 38415
OPTUS D1                
1 29495U 06043B   22335.60780535 -.00000109  00000+0  00000+0 0  9990
2 29495   0.0179  50.5879 0003529 195.5861 203.0901  1.00271673 59158
XM-4 (BLUES)            
1 29520U 06049A   22335.50867473 -.00000204  00000+0  00000+0 0  9997
2 29520   0.0173 295.3482 0001761  24.9150 208.0975  1.00273198 38508
BADR-4                  
1 29526U 06051A   22335.53081464  .00000146  00000+0  00000+0 0  9991
2 29526   0.0380 337.8470 0007481 299.5202  10.0778  1.00271430 38291
WILDBLUE-1              
1 29643U 06054A   22335.57064758 -.00000047  00000+0  00000+0 0  9996
2 29643   0.0191 314.4266 0001932 299.4849 270.7368  1.00271064 40821
AMC-18                  
1 29644U 06054B   22335.24703507 -.00000214  00000+0  00000+0 0  9999
2 29644   0.0192  28.6306 0002620 224.4781 182.9081  1.00268495 58559
SKYNET 5A               
1 30794U 07007B   22335.54467385 -.00000269  00000+0  00000+0 0  9990
2 30794   2.0233  88.5206 0003663 162.9151 110.2468  1.00271037 57721
ANIK F3                 
1 31102U 07009A   22335.56053889  .00000001  00000+0  00000+0 0  9991
2 31102   0.0142 293.7816 0002023 322.9753 256.7478  1.00272109 33591
ASTRA 1L                
1 31306U 07016A   22335.21854838  .00000122  00000+0  00000+0 0  9994
2 31306   0.0550 314.6768 0005177 317.5256 255.7503  1.00274480 32030
GALAXY 17 (G-17)        
1 31307U 07016B   22335.50754160 -.00000172  00000+0  00000+0 0  9990
2 31307   0.0184  14.3149 0002873 250.1306 257.6287  1.00270581 56831
ZHONGXING-6B            
1 31800U 07031A   22335.58653299 -.00000360  00000+0  00000+0 0  9993
2 31800   0.0154 276.1585 0004898 335.4064 145.5001  1.00267109 56454
